CCSDS_OMM_VERS = 2.0
CREATION_DATE  = 
ORIGINATOR     = 

OBJECT_NAME    = XRISM
OBJECT_ID      = 2023-137A
CENTER_NAME    = EARTH
REF_FRAME      = TEME
TIME_SYSTEM    = UTC
MEAN_ELEMENT_THEORY = SGP/SGP4

EPOCH          = 2026-03-08T01:20:14.157024
MEAN_MOTION    = 15.11480009
ECCENTRICITY   = .0008044
INCLINATION    = 31.0022
RA_OF_ASC_NODE = 294.2323
ARG_OF_PERICENTER = 21.4555
MEAN_ANOMALY   = 338.6420

EPHEMERIS_TYPE = 0
CLASSIFICATION_TYPE = U
NORAD_CAT_ID   = 57800
ELEMENT_SET_NO = 999
REV_AT_EPOCH   = 13754
BSTAR          = .47956E-3
MEAN_MOTION_DOT = .8424E-4
MEAN_MOTION_DDOT = 0

CCSDS_OMM_VERS = 2.0
CREATION_DATE  = 
ORIGINATOR     = 

OBJECT_NAME    = ACS3
OBJECT_ID      = 2024-077B
CENTER_NAME    = EARTH
REF_FRAME      = TEME
TIME_SYSTEM    = UTC
MEAN_ELEMENT_THEORY = SGP/SGP4

EPOCH          = 2026-03-08T10:01:47.634816
MEAN_MOTION    = 13.89549723
ECCENTRICITY   = .0058936
INCLINATION    = 97.2080
RA_OF_ASC_NODE = 8.8163
ARG_OF_PERICENTER = 79.9862
MEAN_ANOMALY   = 280.7945

EPHEMERIS_TYPE = 0
CLASSIFICATION_TYPE = U
NORAD_CAT_ID   = 59588
ELEMENT_SET_NO = 999
REV_AT_EPOCH   = 9402
BSTAR          = .25339E-1
MEAN_MOTION_DOT = .31523E-3
MEAN_MOTION_DDOT = 0

CCSDS_OMM_VERS = 2.0
CREATION_DATE  = 
ORIGINATOR     = 

OBJECT_NAME    = SZ-21 MODULE
OBJECT_ID      = 2025-246C
CENTER_NAME    = EARTH
REF_FRAME      = TEME
TIME_SYSTEM    = UTC
MEAN_ELEMENT_THEORY = SGP/SGP4

EPOCH          = 2026-03-08T11:33:38.438496
MEAN_MOTION    = 15.68439645
ECCENTRICITY   = .0001377
INCLINATION    = 41.4736
RA_OF_ASC_NODE = 210.7960
ARG_OF_PERICENTER = 295.9249
MEAN_ANOMALY   = 64.1451

EPHEMERIS_TYPE = 0
CLASSIFICATION_TYPE = U
NORAD_CAT_ID   = 66515
ELEMENT_SET_NO = 999
REV_AT_EPOCH   = 1788
BSTAR          = .41839E-3
MEAN_MOTION_DOT = .48562E-3
MEAN_MOTION_DDOT = 0

